{"0":{"idp":"15397","idd":"22580","idt":"98","talla":"unica ","peso":"1.50","nombre":"Dije Huellas de Pies","imagen":"catalog\/IMG_20210305_124852134c1faf45e2244db4ff5e1b57f34b05.jpg","agotado":"05\/03\/2021 03:59:17 PM","idpvd":"51","codf":"","cant":0,"nota":"","en_oc":true},"1":{"idp":"15396","idd":"22579","idt":"98","talla":"unica ","peso":"1.50","nombre":"Dije de Torre Eiffel","imagen":"catalog\/IMG_20210305_12512255d8dc1f7f2f2b6de158a80cce609c7c.jpg","agotado":"05\/03\/2021 03:57:36 PM","idpvd":"51","codf":"","cant":0,"nota":"","en_oc":true},"2":{"idp":"5448","idd":"6894","idt":"92","talla":"unica ","peso":"4.10","nombre":"Argollas de Circulos","imagen":"catalog\/IMG_20200212_135001_compress400983d7598740adfcdd8840119f6c5b2b.jpg","agotado":"05\/03\/2021 04:02:05 PM","idpvd":"68","codf":"","cant":0,"nota":"","en_oc":true},"3":{"idp":"5448","idd":"6894","idt":"185","talla":"50 mm","peso":"4.10","nombre":"Argollas de Circulos","imagen":"catalog\/IMG_20200212_135001_compress400983d7598740adfcdd8840119f6c5b2b.jpg","agotado":"05\/03\/2021 04:02:05 PM","idpvd":"68","codf":"","cant":0,"nota":"","en_oc":true},"4":{"idp":"15393","idd":"22576","idt":"98","talla":"unica ","peso":"1.20","nombre":"Dije de Ojo Turco","imagen":"catalog\/IMG_20210305_14585011cb7b156c72e9497e7955e56fac1a40.jpg","agotado":"05\/03\/2021 03:51:49 PM","idpvd":"51","codf":"","cant":0,"nota":"","en_oc":true},"6":{"idp":"15337","idd":"22520","idt":"102","talla":"unica ","peso":"4.40","nombre":"Juego de Circones Circular","imagen":"catalog\/IMG_20210304_1624485b99667f0323ec6d2cdb6d6a902599f2.jpg","agotado":"15\/03\/2021 09:21:01 AM","idpvd":"51","codf":"","cant":0,"nota":"","en_oc":true},"7":{"idp":"8884","idd":"11549","idt":"92","talla":"unica ","peso":"1.40","nombre":"Argollas 20mm","imagen":"catalog\/Screenshot_20200820_130010d202647bbe2cbd7cd5a62b857fd0b704.jpg","agotado":"15\/03\/2021 09:09:57 AM","idpvd":"96","codf":"ADD-PN-0315","cant":0,"nota":"","en_oc":true},"8":{"idp":"10767","idd":"17264","idt":"173","talla":"14 mm","peso":"0.70","nombre":"Argollas 1.5*14mm","imagen":"catalog\/IMG_20201120_164748 _1_75b5370a4ea1181d1bd586fee11ba149.jpg","agotado":"15\/03\/2021 09:00:54 AM","idpvd":"58","codf":"","cant":0,"nota":"","en_oc":true},"9":{"idp":"10674","idd":"14911","idt":"92","talla":"unica ","peso":"1.80","nombre":"Argollas 18mm","imagen":"catalog\/IMG_20201007_12160555638452b585eb8c355f2022617504e0.jpg","agotado":"15\/03\/2021 08:51:59 AM","idpvd":"96","codf":"AD-PN-0225","cant":0,"nota":"","en_oc":true},"10":{"idp":"10677","idd":"14914","idt":"92","talla":"unica ","peso":"1.30","nombre":"Argollas 18mm","imagen":"catalog\/IMG_20201007_12073825fc4d53837274cbae0b23f1981699fe.jpg","agotado":"15\/03\/2021 08:51:26 AM","idpvd":"96","codf":"ADD-PN-0215","cant":0,"nota":"","en_oc":true},"11":{"idp":"8542","idd":"11001","idt":"92","talla":"unica ","peso":"2.30","nombre":"Ear Clips de Corazones","imagen":"catalog\/RXE1043ZB _1_158875e1b434e8af216150b2862b4d6f.JPG","agotado":"16\/03\/2021 03:36:29 PM","idpvd":"39","codf":"RXE1043ZB","cant":0,"nota":"","en_oc":true},"12":{"idp":"8545","idd":"11007","idt":"92","talla":"unica ","peso":"1.70","nombre":"Ear Clips","imagen":"catalog\/RHE2914ZI _1_25e20bb362a902da8697863216b35e03.JPG","agotado":"16\/03\/2021 03:37:08 PM","idpvd":"39","codf":"RHE2914Z1","cant":0,"nota":"","en_oc":true},"13":{"idp":"7384","idd":"9346","idt":"92","talla":"unica ","peso":"1.80","nombre":"Ear Clips","imagen":"catalog\/RHE2932ZB _3_cb904ddc35198a54a57949cfd74d0541.JPG","agotado":"16\/03\/2021 03:35:04 PM","idpvd":"39","codf":"RHE2932ZB","cant":0,"nota":"","en_oc":true},"14":{"idp":"12638","idd":"18366","idt":"92","talla":"unica ","peso":"1.80","nombre":"Ear Clips ","imagen":"catalog\/RHBRY_E2005EZ _3_7490559f64200f7ee2d1ca72d904cdb6.jpg","agotado":"16\/03\/2021 03:38:12 PM","idpvd":"39","codf":"RHBRY-E2005EZ","cant":0,"nota":"","en_oc":true},"15":{"idp":"8545","idd":"11006","idt":"92","talla":"unica ","peso":"1.70","nombre":"Ear Clips","imagen":"catalog\/RHE2914ZI _2_e80c4364e3b36da8edb289afbc5f767b.JPG","agotado":"26\/02\/2021 05:32:05 PM","idpvd":"39","codf":"RHE2914Z1","cant":0,"nota":"","en_oc":true}}