{"1":{"idp":"7878","idd":"9999","idt":"2","talla":"45 cm","peso":"4.50","nombre":"KCD035","imagen":"catalog\/IMG_20200713_132929c1299088aaf2416ddc7aec685765ab740cd9a962b6f809466528bddeb223ae1d.jpg","agotado":"26\/03\/2021 05:13:13 PM","idpvd":"59","codf":"KCD035","cant":120,"nota":"","en_oc":true},"2":{"idp":"7878","idd":"9999","idt":"14","talla":"50 cm","peso":"4.90","nombre":"KCD035","imagen":"catalog\/IMG_20200713_132929c1299088aaf2416ddc7aec685765ab740cd9a962b6f809466528bddeb223ae1d.jpg","agotado":"26\/03\/2021 05:13:13 PM","idpvd":"59","codf":"KCD035","cant":60,"nota":"","en_oc":true},"3":{"idp":"7878","idd":"9999","idt":"16","talla":"60 cm","peso":"5.90","nombre":"KCD035","imagen":"catalog\/IMG_20200713_132929c1299088aaf2416ddc7aec685765ab740cd9a962b6f809466528bddeb223ae1d.jpg","agotado":"26\/03\/2021 05:13:13 PM","idpvd":"59","codf":"KCD035","cant":75,"nota":"","en_oc":true},"4":{"idp":"16057","idd":"23531","idt":"92","talla":"unica ","peso":"3.00","nombre":"Zarcillos de Gota","imagen":"catalog\/IMG_20210326_145215a36e6b83ca755556c084e7df51a16b52.jpg","agotado":"26\/03\/2021 05:08:04 PM","idpvd":"64","codf":"","cant":0,"nota":"","en_oc":true},"5":{"idp":"3393","idd":"4067","idt":"82","talla":"80 cm","peso":"10.70","nombre":"Camisero ","imagen":"catalog\/IMG_20190716_095217_compress1716fdc0713a830406dcb4db1bc5dcad8d.jpg","agotado":"26\/03\/2021 02:52:54 PM","idpvd":"2","codf":"","cant":0,"nota":"","en_oc":true},"6":{"idp":"7823","idd":"9931","idt":"160","talla":"23+3 cm","peso":"4.10","nombre":"Tobillera de Corazones , Tr\u00e9bol , Llave , Estrella","imagen":"catalog\/IMG_20200710_1107511eaf0c8f050ba30eea97338380a36deb.jpg","agotado":"26\/03\/2021 02:49:47 PM","idpvd":"1","codf":"","cant":0,"nota":"","en_oc":true},"7":{"idp":"16057","idd":"23528","idt":"92","talla":"unica ","peso":"3.00","nombre":"Zarcillos de Gota","imagen":"catalog\/IMG_20210326_1448354eccec16463d9ff796e54ec467264f0b.jpg","agotado":"26\/03\/2021 05:07:04 PM","idpvd":"64","codf":"","cant":0,"nota":"","en_oc":true},"8":{"idp":"8615","idd":"11115","idt":"6","talla":"45 cm","peso":"8.80","nombre":"Rosario de la Milagrosa 3mm","imagen":"catalog\/IMG_20210205_145410fc6ef92fb2295ac88c00ca9d8c59046d.jpg","agotado":"26\/03\/2021 01:16:17 PM","idpvd":"2","codf":"0026HK0883","cant":0,"nota":"","en_oc":true},"9":{"idp":"8615","idd":"11115","idt":"9","talla":"50 cm","peso":"9.00","nombre":"Rosario de la Milagrosa 3mm","imagen":"catalog\/IMG_20210205_145410fc6ef92fb2295ac88c00ca9d8c59046d.jpg","agotado":"26\/03\/2021 01:16:17 PM","idpvd":"2","codf":"0026HK0883","cant":0,"nota":"","en_oc":true},"10":{"idp":"8615","idd":"11115","idt":"7","talla":"60 cm","peso":"9.40","nombre":"Rosario de la Milagrosa 3mm","imagen":"catalog\/IMG_20210205_145410fc6ef92fb2295ac88c00ca9d8c59046d.jpg","agotado":"26\/03\/2021 01:16:17 PM","idpvd":"2","codf":"0026HK0883","cant":0,"nota":"","en_oc":true},"11":{"idp":"16057","idd":"23527","idt":"92","talla":"unica ","peso":"3.00","nombre":"Zarcillos de Gota","imagen":"catalog\/IMG_20210326_1447252d5eb82b6bb43fda8d3b2752092ac3e4.jpg","agotado":"26\/03\/2021 05:06:46 PM","idpvd":"64","codf":"","cant":755,"nota":"","en_oc":true},"13":{"idp":"3269","idd":"3913","idt":"175","talla":"16 mm","peso":"2.30","nombre":"Argollas con Bolitas 16mm","imagen":"catalog\/3268_39131ca1f81f7cf215c4d37359e3f3e099f6.jpg","agotado":"08\/03\/2021 11:23:53 AM","idpvd":"22","codf":"","cant":0,"nota":"","en_oc":true},"14":{"idp":"5101","idd":"12034","idt":"102","talla":"unica ","peso":"3.90","nombre":"Juego de Flor","imagen":"catalog\/JS707_117IS_2 _2_3387c49220b6d93eb052bc6c692098a6.JPG","agotado":"01\/04\/2021 06:20:46 PM","idpvd":"39","codf":"JS707-117IS","cant":0,"nota":"","en_oc":0},"15":{"idp":"7139","idd":"9059","idt":"87","talla":"17+3 cm","peso":"5.30","nombre":"Pulsera de Enfermera","imagen":"catalog\/IMG_20190927_1648113e6352711e9681311b44c6c8db73769f.jpg","agotado":"01\/04\/2021 06:01:28 PM","idpvd":"39","codf":"BRY-BZYSL06","cant":0,"nota":"","en_oc":0},"16":{"idp":"13102","idd":"18944","idt":"92","talla":"unica ","peso":"3.00","nombre":"Zarcillos Largos de Estrellas y Perla","imagen":"catalog\/BRY048817 _5_6fa84bfcad7c3c383b51840b2ee2a8aa.jpg","agotado":"01\/04\/2021 06:12:42 PM","idpvd":"39","codf":"BRY048817","cant":0,"nota":"","en_oc":0},"17":{"idp":"5130","idd":"6625","idt":"102","talla":"unica ","peso":"4.10","nombre":"Juego de Estrella","imagen":"catalog\/CJ806_123IL _2_04b112f627c5b9e9aa2bcff2a56e2859.jpg","agotado":"01\/04\/2021 06:18:35 PM","idpvd":"39","codf":"CJ806-123IL","cant":0,"nota":"","en_oc":0},"18":{"idp":"5130","idd":"6528","idt":"102","talla":"unica ","peso":"4.10","nombre":"Juego de Estrella","imagen":"catalog\/CJ806_123IL_2 _1_2dd7f118af38c829fea255be856eb30e.jpg","agotado":"01\/04\/2021 06:18:40 PM","idpvd":"39","codf":"CJ806-123IL","cant":0,"nota":"","en_oc":0},"20":{"idp":"3626","idd":"17465","idt":"171","talla":"10 mm","peso":"2.00","nombre":"Huggies 10mm F1R04","imagen":"catalog\/JS707_26IP _4_780187543abf5a8b522f184d9b298c8f.JPG","agotado":"01\/04\/2021 05:34:55 PM","idpvd":"39","codf":"JS707-26IP","cant":0,"nota":"","en_oc":0},"21":{"idp":"16197","idd":"23751","idt":"92","talla":"unica ","peso":"1.30","nombre":"Zarcillos de Planeta y Estrella ","imagen":"catalog\/IMG_20210401_135937be603d249daab54ebbc7f77c4d1394ab.jpg","agotado":"01\/04\/2021 05:07:09 PM","idpvd":"39","codf":"FB1999","cant":0,"nota":"","en_oc":0},"22":{"idp":"12181","idd":"17609","idt":"25","talla":"6 us","peso":"1.80","nombre":"Anillo de Infinito ","imagen":"catalog\/JH0481091 _3_d23cd1c5aede1bded9753f1d40a7c248.jpg","agotado":"01\/04\/2021 05:14:05 PM","idpvd":"39","codf":"JH0481091","cant":0,"nota":"","en_oc":0},"23":{"idp":"12181","idd":"17609","idt":"5","talla":"7 us","peso":"1.80","nombre":"Anillo de Infinito ","imagen":"catalog\/JH0481091 _3_d23cd1c5aede1bded9753f1d40a7c248.jpg","agotado":"01\/04\/2021 05:14:05 PM","idpvd":"39","codf":"JH0481091","cant":0,"nota":"","en_oc":0},"24":{"idp":"12181","idd":"17609","idt":"26","talla":"8 us","peso":"1.80","nombre":"Anillo de Infinito ","imagen":"catalog\/JH0481091 _3_d23cd1c5aede1bded9753f1d40a7c248.jpg","agotado":"01\/04\/2021 05:14:05 PM","idpvd":"39","codf":"JH0481091","cant":0,"nota":"","en_oc":0},"25":{"idp":"12181","idd":"17609","idt":"43","talla":"9 us","peso":"1.80","nombre":"Anillo de Infinito ","imagen":"catalog\/JH0481091 _3_d23cd1c5aede1bded9753f1d40a7c248.jpg","agotado":"01\/04\/2021 05:14:05 PM","idpvd":"39","codf":"JH0481091","cant":0,"nota":"","en_oc":0},"26":{"idp":"11332","idd":"16278","idt":"91","talla":"ajust ","peso":"2.70","nombre":"Anillo Colla de Ballena ","imagen":"catalog\/JH048773 _2_ffcdf7d275610a99af8129c5845e0ab5.jpg","agotado":"01\/04\/2021 05:20:23 PM","idpvd":"39","codf":"JH048773","cant":0,"nota":"","en_oc":0},"27":{"idp":"8362","idd":"10674","idt":"92","talla":"unica ","peso":"5.50","nombre":"Zarcillos Redondo","imagen":"catalog\/RXT556IL _4_702ea7dfb2eb5459547bdf05cc573702.JPG","agotado":"01\/04\/2021 05:34:55 PM","idpvd":"39","codf":"RXT556IL","cant":0,"nota":"","en_oc":0},"28":{"idp":"4036","idd":"5098","idt":"92","talla":"unica ","peso":"1.80","nombre":"Zarcillos Redondo","imagen":"catalog\/RXE179_01AZI _5_f6f73b5a6e908073b9bef1e52cd942f9.JPG","agotado":"01\/04\/2021 05:34:55 PM","idpvd":"39","codf":"RXE179-01AZI","cant":0,"nota":"","en_oc":0},"29":{"idp":"3999","idd":"5054","idt":"92","talla":"unica ","peso":"3.10","nombre":"Zarcillos de Coraz\u00f3n ","imagen":"catalog\/RXE186IL _3_cd90ed6227b07ac53f0f948a98a079ac.JPG","agotado":"01\/04\/2021 05:34:55 PM","idpvd":"39","codf":"RXE186IL","cant":0,"nota":"","en_oc":0},"30":{"idp":"3997","idd":"5049","idt":"92","talla":"unica ","peso":"2.80","nombre":"Zarcillos de Gota 5x7mm","imagen":"catalog\/RXE134ZS _3_af8701add3e001a0ff11f3fa663c0353.JPG","agotado":"01\/04\/2021 05:34:55 PM","idpvd":"39","codf":"RXE134ZS","cant":0,"nota":"","en_oc":0},"31":{"idp":"10056","idd":"13835","idt":"92","talla":"unica ","peso":"2.10","nombre":"Zarcillos de Ojo Turco","imagen":"catalog\/JH048698 _1_c3e22e02ecc527491433414d2f0696f9.jpg","agotado":"01\/04\/2021 05:34:55 PM","idpvd":"39","codf":"JH048699","cant":0,"nota":"","en_oc":0},"32":{"idp":"10058","idd":"13805","idt":"92","talla":"unica ","peso":"2.80","nombre":"Huggies FDI","imagen":"catalog\/RX048684 _5_316b97fd1e8cc1f8ff4db99fb440edbf.JPG","agotado":"01\/04\/2021 05:34:55 PM","idpvd":"39","codf":"RXE1136","cant":0,"nota":"","en_oc":0},"34":{"idp":"16187","idd":"23741","idt":"92","talla":"unica ","peso":"1.40","nombre":"Zarcillos de Ojo Turco","imagen":"catalog\/IMG_20210401_1321096e37f59e3b55e70fbdde2011eba0a88a.jpg","agotado":"01\/04\/2021 04:40:51 PM","idpvd":"39","codf":"FB1848","cant":0,"nota":"","en_oc":0},"35":{"idp":"16193","idd":"23746","idt":"92","talla":"unica ","peso":"1.30","nombre":"Zarcillos de Ojo Turco","imagen":"catalog\/IMG_20210401_133735188ad362c872a1a3fc772d0ae4508f32.jpg","agotado":"01\/04\/2021 04:41:12 PM","idpvd":"39","codf":"FB1754","cant":0,"nota":"","en_oc":0},"37":{"idp":"1058","idd":"1291","idt":"102","talla":"unica ","peso":"2.30","nombre":"Juegos de Circones","imagen":"catalog\/HT620_5X7M _8_ce000bbb42bf9df685fe912708575a91.jpg","agotado":"01\/04\/2021 04:42:00 PM","idpvd":"39","codf":"RXE736-2II","cant":0,"nota":"","en_oc":0},"39":{"idp":"12772","idd":"18402","idt":"92","talla":"unica ","peso":"2.30","nombre":"Ear Clips de Estrella","imagen":"catalog\/RXE1118EE _3_ff3bbb4de07b522b07cef68a6ee02f17.jpg","agotado":"01\/04\/2021 04:43:53 PM","idpvd":"39","codf":"RXE1118EE","cant":0,"nota":"","en_oc":0},"59":{"idp":"10080","idd":"13818","idt":"92","talla":"unica ","peso":"2.30","nombre":"Huggies FDI","imagen":"catalog\/RX048681 _2_e97f482b796a06db566a73277d07ebef.JPG","agotado":"01\/04\/2021 12:17:16 PM","idpvd":"39","codf":"RXE1135","cant":0,"nota":"","en_oc":0},"60":{"idp":"7678","idd":"13726","idt":"92","talla":"unica ","peso":"2.40","nombre":"Zarcillos de Coraz\u00f3n 12mm ","imagen":"catalog\/IMG_20200918_1634387b2f07722ae84070158a02754e87482a.jpg","agotado":"01\/04\/2021 12:40:01 PM","idpvd":"39","codf":"RXE1111ZO","cant":0,"nota":"","en_oc":0},"64":{"idp":"15887","idd":"23276","idt":"25","talla":"6 us","peso":"3.10","nombre":"Anillo Anudado ","imagen":"catalog\/IMG_20210324_1315480ed66d5a4e92aec6015c6407afceb567.jpg","agotado":"01\/04\/2021 01:50:17 PM","idpvd":"39","codf":"","cant":0,"nota":"","en_oc":0},"65":{"idp":"15887","idd":"23276","idt":"5","talla":"7 us","peso":"3.10","nombre":"Anillo Anudado ","imagen":"catalog\/IMG_20210324_1315480ed66d5a4e92aec6015c6407afceb567.jpg","agotado":"01\/04\/2021 01:50:17 PM","idpvd":"39","codf":"","cant":0,"nota":"","en_oc":0},"66":{"idp":"15887","idd":"23276","idt":"26","talla":"8 us","peso":"3.10","nombre":"Anillo Anudado ","imagen":"catalog\/IMG_20210324_1315480ed66d5a4e92aec6015c6407afceb567.jpg","agotado":"01\/04\/2021 01:50:17 PM","idpvd":"39","codf":"","cant":0,"nota":"","en_oc":0},"67":{"idp":"15887","idd":"23276","idt":"43","talla":"9 us","peso":"3.10","nombre":"Anillo Anudado ","imagen":"catalog\/IMG_20210324_1315480ed66d5a4e92aec6015c6407afceb567.jpg","agotado":"01\/04\/2021 01:50:17 PM","idpvd":"39","codf":"","cant":0,"nota":"","en_oc":0}}